SPACEBEE-4              
1 43139U 18004AE  22270.18199787  .00104992  00000+0  15562-2 0  9991
2 43139  97.3780 356.6409 0003342 319.6585  40.4421 15.54877760262586
SPACEBEE-3              
1 43140U 18004AF  22269.91044049  .00884133  35580-3  21071-2 0  9991
2 43140  97.3708   2.9723 0010418 280.6970  79.3133 15.96594550262956
SPACEBEE-7              
1 43816U 18099BL  22270.14181041  .00004651  00000+0  39628-3 0  9998
2 43816  97.6187 335.9454 0010654 272.2864  87.7139 14.98203123207874
SPACEBEE-5              
1 43817U 18099BM  22270.13574907  .00012025  00000+0  90429-3 0  9995
2 43817  97.6277 339.5331 0004636 260.8769  99.1932 15.02694336208032
SPACEBEE-6              
1 43818U 18099BN  22270.15451531  .00005641  00000+0  46386-3 0  9994
2 43818  97.6250 337.0579 0010177 275.0969  84.9092 14.99490470208079
SPACEBEE-21             
1 46300U 20061AE  22270.13617232  .00028447  00000+0  12389-2 0  9999
2 46300  97.4426 341.0230 0001903 146.7481 213.3875 15.22172298113984
SPACEBEE-20             
1 46301U 20061AF  22270.13675855  .00027017  00000+0  11785-2 0  9996
2 46301  97.4456 341.1332 0001654 149.9971 210.1360 15.22128742113983
SPACEBEE-15             
1 46302U 20061AG  22270.15148350  .00033316  00000+0  13900-2 0  9994
2 46302  97.4430 341.4720 0001751 144.0298 216.1057 15.23595844114012
SPACEBEE-19             
1 46303U 20061AH  22269.46722864  .00018816  00000+0  80878-3 0  9992
2 46303  97.4434 340.5693 0001968 150.1852 209.9497 15.22705009113898
SPACEBEE-18             
1 46304U 20061AJ  22270.13758386  .00028273  00000+0  12140-2 0  9991
2 46304  97.4425 341.1871 0001977 144.1425 215.9945 15.22655571113997
SPACEBEE-10             
1 46305U 20061AK  22269.11638219  .00029362  00000+0  11358-2 0  9990
2 46305  97.4445 341.2314 0001935 155.2332 204.9000 15.26162510113908
SPACEBEE-17             
1 46306U 20061AL  22270.17601614  .00031916  00000+0  13404-2 0  9990
2 46306  97.4432 341.4626 0001829 147.1126 213.0225 15.23381675114055
SPACEBEE-11             
1 46307U 20061AM  22270.15894968  .00039450  00000+0  15701-2 0  9998
2 46307  97.4434 341.9613 0001991 151.2864 208.8483 15.25144786114043
SPACEBEE-16             
1 46308U 20061AN  22270.15879378  .00032887  00000+0  13766-2 0  9993
2 46308  97.4434 341.5023 0001868 152.9418 207.1916 15.23487565114014
SPACEBEE-12             
1 46309U 20061AP  22270.15373239  .00037587  00000+0  15199-2 0  9993
2 46309  97.4431 341.8046 0001896 148.5382 211.5969 15.24622995114030
SPACEBEE-13             
1 46310U 20061AQ  22270.14008765  .00033481  00000+0  13722-2 0  9992
2 46310  97.4432 341.6677 0001833 143.4515 216.6848 15.24196722114063
SPACEBEE-14             
1 46311U 20061AR  22270.09762012  .00025987  00000+0  10738-2 0  9995
2 46311  97.4435 341.5794 0001933 147.9569 212.1786 15.23974968114040
SPACEBEE-34             
1 46933U 20085E   22267.41880813  .00361237  00000+0  25050-2 0  9997
2 46933  97.4255  52.1988 0004824 305.3887  54.6949 15.73406816103040
SPACEBEE-35             
1 46934U 20085F   22270.37521934  .00262835  00000+0  24524-2 0  9992
2 46934  97.4315  54.5932 0004571 308.9367  51.1498 15.66486712103455
SPACEBEE-36             
1 46935U 20085G   22269.79572201  .00245891  00000+0  25642-2 0  9995
2 46935  97.4389  53.8267 0004195 346.6692  13.4377 15.63724093103341
SPACEBEE-37             
1 46936U 20085H   22270.35640063  .00135682  00000+0  19185-2 0  9993
2 46936  97.4376  53.5001 0003527  52.2765 307.8828 15.56054041103364
SPACEBEE-38             
1 46937U 20085J   22270.39962050  .00140882  00000+0  20130-2 0  9991
2 46937  97.4367  53.2264 0005395  48.9941 311.1779 15.55743108103367
SPACEBEENZ-3            
1 46938U 20085K   22270.34798966  .00037157  00000+0  10068-2 0  9999
2 46938  97.4442  49.7997 0010934  72.8654 287.3894 15.37503824103111
SPACEBEENZ-4            
1 46939U 20085L   22270.37058246  .00035325  00000+0  98103-3 0  9995
2 46939  97.4474  49.6273 0011658  76.8838 283.3726 15.36739332103108
SPACEBEENZ-5            
1 46941U 20085N   22270.36280231  .00034347  00000+0  96901-3 0  9995
2 46941  97.4469  49.4960 0011091  84.5587 275.6926 15.36261126103099
SPACEBEENZ-6            
1 46942U 20085P   22269.96030815  .00032185  00000+0  92301-3 0  9999
2 46942  97.4482  49.0078 0011380  82.6859 277.5702 15.35758593103027
SPACEBEE-33             
1 46944U 20085R   22270.37348916  .00097563  00000+0  17602-2 0  9993
2 46944  97.4306  51.5032 0005083  73.3661 286.8158 15.49392052103255
SPACEBEE-29             
1 46945U 20085S   22270.08965334  .00129526  00000+0  20107-2 0  9990
2 46945  97.4345  51.8810 0004561  78.3102 281.8898 15.53507348103258
SPACEBEE-32             
1 46946U 20085T   22270.37386055  .00105080  00000+0  18415-2 0  9998
2 46946  97.4339  51.6530 0005134  81.4311 278.7509 15.50190292103261
SPACEBEE-31             
1 46947U 20085U   22270.37095974  .00113791  00000+0  19074-2 0  9996
2 46947  97.4229  51.7939 0004536  82.7732 277.4047 15.51419274103279
SPACEBEE-28             
1 46948U 20085V   22270.22240966  .00136043  00000+0  20319-2 0  9993
2 46948  97.4337  52.1483 0004431  75.2591 284.9152 15.54550557103287
SPACEBEE-30             
1 46949U 20085W   22269.97219268  .00117482  00000+0  19016-2 0  9993
2 46949  97.4371  51.5660 0007096  59.8746 300.3208 15.52371799103222
SPACEBEE-27             
1 46950U 20085X   22270.37661855  .00188688  00000+0  23167-2 0  9992
2 46950  97.4328  52.9660 0004377  88.6484 271.5274 15.59657611103352
SPACEBEE-25             
1 46951U 20085Y   22270.07474240  .00240016  00000+0  24897-2 0  9995
2 46951  97.4346  53.2532 0006717 359.2902   0.8449 15.63865233103349
SPACEBEE-24             
1 46952U 20085Z   22270.35561733  .00145035  00000+0  20881-2 0  9995
2 46952  97.4301  52.4015 0005625  43.7170 316.4554 15.55519512103314
SPACEBEE-22             
1 46953U 20085AA  22270.04892210  .00270912  00000+0  25827-2 0  9997
2 46953  97.4375  53.3592 0005738   9.6982 350.4843 15.65916580103353
SPACEBEE-26             
1 46956U 20085AD  22270.24574534  .00155205  00000+0  21493-2 0  9990
2 46956  97.4292  52.4023 0002968 103.3651 256.7935 15.56553026103228
SPACEBEENZ-2            
1 46957U 20085AE  22270.33076736  .00051701  00000+0  13626-2 0  9997
2 46957  97.4481  49.9679 0011187  77.9772 282.2726 15.38279435103085
SPACEBEE-39             
1 46958U 20085AF  22270.39174361  .00123757  00000+0  19341-2 0  9998
2 46958  97.4355  52.7472 0006418  50.9731 309.2081 15.53331535102637
SPACEBEENZ-1            
1 46959U 20085AG  22270.35536270  .00043708  00000+0  11194-2 0  9991
2 46959  97.4459  50.2465 0010832  76.3902 283.8551 15.39206142102622
SPACEBEE-23             
1 46960U 20085AH  22270.37850759  .00282671  00000+0  30300-2 0  9990
2 46960  97.4310  53.4024 0002564  45.0172 315.1293 15.62902899102508
SPACEBEE-52             
1 47425U 21006N   22270.16964115  .00050790  00000+0  16764-2 0  9993
2 47425  97.4345 332.0091 0008432 262.6341  97.3942 15.31208411 92983
SPACEBEE-46             
1 47426U 21006P   22270.10894022  .00027738  00000+0  10166-2 0  9993
2 47426  97.4338 331.1261 0009055 268.2245  91.7957 15.27927652 92920
SPACEBEE-47             
1 47427U 21006Q   22270.10387495  .00027470  00000+0  10218-2 0  9996
2 47427  97.4340 330.9777 0009100 269.8341  90.1856 15.27440536 92919
SPACEBEE-59             
1 47428U 21006R   22270.09614117  .00026199  00000+0  98859-3 0  9994
2 47428  97.4338 330.8435 0008941 272.1252  87.8963 15.26977055 92908
SPACEBEE-62             
1 47429U 21006S   22270.42256286  .00011813  00000+0  56237-3 0  9992
2 47429  97.4295 328.7842 0011010 277.7088  82.2896 15.19252731 92811
SPACEBEE-61             
1 47431U 21006U   22270.15218209  .00027776  00000+0  11992-2 0  9991
2 47431  97.4377 328.4967 0003400 286.3808  73.7054 15.22471137 92739
SPACEBEE-49             
1 47432U 21006V   22270.13487350  .00027897  00000+0  12128-2 0  9991
2 47432  97.4381 328.4051 0003326 285.6912  74.3957 15.22233249 92722
SPACEBEE-60             
1 47433U 21006W   22270.11774842  .00028922  00000+0  12472-2 0  9997
2 47433  97.4387 328.4467 0002949 285.8840  74.2071 15.22503574 92729
SPACEBEE-53             
1 47434U 21006X   22270.05584576  .00028870  00000+0  11569-2 0  9992
2 47434  97.4399 329.0504 0002843 281.1507  78.9410 15.24984087 92759
SPACEBEE-63             
1 47442U 21006AF  22270.12582198  .00009245  00000+0  48174-3 0  9995
2 47442  97.4333 326.4817 0004397 304.0496  56.0319 15.16195773 92619
SPACEBEE-50             
1 47443U 21006AG  22270.08904727  .00020008  00000+0  86946-3 0  9996
2 47443  97.4376 328.4208 0003352 285.0862  75.0003 15.22317268 92723
SPACEBEE-51             
1 47444U 21006AH  22270.12311874  .00035830  00000+0  13989-2 0  9992
2 47444  97.4309 328.7017 0002979 278.2164  81.8736 15.25807088 92785
SPACEBEE-48             
1 47447U 21006AL  22270.15197026  .00041990  00000+0  15183-2 0  9991
2 47447  97.4290 330.0694 0006676 267.9494  92.0981 15.28296911 92880
SPACEBEE-40             
1 47449U 21006AN  22270.14703829  .00038003  00000+0  14523-2 0  9994
2 47449  97.4292 329.6217 0007140 272.9094  87.1327 15.26488598 92856
SPACEBEE-41             
1 47451U 21006AQ  22270.16526113  .00037744  00000+0  14473-2 0  9993
2 47451  97.4300 329.6408 0006873 272.0585  87.9866 15.26379602 92850
SPACEBEE-42             
1 47455U 21006AU  22270.14313322  .00036970  00000+0  14299-2 0  9997
2 47455  97.4298 329.5444 0006884 272.5657  87.4793 15.26096606 92849
SPACEBEE-55             
1 47459U 21006AY  22269.12787556  .00007782  00000+0  38795-3 0  9998
2 47459  97.4259 326.0927 0009432 297.3576  62.6697 15.17777067 92547
SPACEBEE-54             
1 47460U 21006AZ  22270.08680765  .00026531  00000+0  10298-2 0  9991
2 47460  97.4304 329.5008 0006747 273.3745  86.6722 15.26051651 92837
SPACEBEE-58             
1 47464U 21006BD  22270.16425308  .00038315  00000+0  14194-2 0  9996
2 47464  97.4338 331.0566 0009018 269.2838  90.7367 15.27502614 92928
